{
  "norad_id": 51141,
  "name": "STARLINK-3179",
  "history": [
    {
      "epoch": "2026-03-28T15:30:55.257696Z",
      "apogee_km": 540.5951864237995,
      "perigee_km": 538.9639416979935,
      "latitude_deg": -1.3981896698978554e-05,
      "longitude_deg": 155.22952061991586,
      "height_km": 540.6553837572617,
      "semi_major_axis_km": 6917.916564060896,
      "eccentricity": 0.0001179,
      "inclination_deg": 53.2166,
      "raan_deg": 214.0237,
      "arg_perigee_deg": 88.5915,
      "mean_anomaly_deg": 271.5212,
      "mean_motion_rev_day": 15.08828165
    }
  ]
}