{"fetched_at":"2026-03-29T16:36:15Z","count":15609,"tles":[{"name":"STARLINK-3179","line1":"1 51141U 22005AP  26087.64647289 -.00000527  00000+0 -15031-4 0  9999","line2":"2 51141  53.2166 214.0237 0001179  88.5915 271.5212 15.08828165231606","category":"Starlink"}]}